ORBCOMM FM24            
1 25478U 98053D   25274.03010303  .00002415  00000+0  83140-3 0  9991
2 25478  45.0061 127.1609 0002859  43.6640 316.4434 14.38359952412682
ORBCOMM FM25            
1 25479U 98053E   25274.00359560  .00002524  00000+0  86753-3 0  9994
2 25479  45.0053 125.5729 0005124  54.7527 305.3800 14.38327439412975
ORBCOMM FM26            
1 25480U 98053F   25274.29406582  .00002426  00000+0  85183-3 0  9991
2 25480  45.0053 121.4298 0006831  73.2913 286.8684 14.37352427412915
ORBCOMM FM27            
1 25481U 98053G   25274.26677923  .00003017  00000+0  10268-2 0  9996
2 25481  45.0038 124.4877 0001400  56.3489 303.7493 14.38366281412946
ORBCOMM FM28            
1 25482U 98053H   25273.80529684  .00002786  00000+0  94888-3 0  9999
2 25482  45.0049  64.0325 0005037 120.1540 239.9809 14.38520637413561
ORBCOMM FM30            
1 25980U 99065A   25274.06337543  .00002275  00000+0  79903-3 0  9990
2 25980  45.0314 308.4960 0007216 199.3447 160.7128 14.37518343349680
ORBCOMM FM31            
1 25981U 99065B   25273.41587471  .00002417  00000+0  84731-3 0  9999
2 25981  45.0227 305.0277 0005516 224.9217 135.1186 14.37443313349144
ORBCOMM FM32            
1 25982U 99065C   25273.46253542  .00002383  00000+0  85197-3 0  9993
2 25982  45.0159 322.0910 0007780 212.4143 147.6228 14.36500972349731
